
PIXXEL FIREFLY-1
1 55000U 22178C   25344.67708333  .00001345  00000-0  68790-4 0  9991
2 55000  97.6012 170.2099 0001234  99.1567 261.0678 15.09534413432847

PIXXEL FIREFLY-2
1 55001U 22178D   25344.67708333  .00001234  00000-0  62679-4 0  9993
2 55001  97.5901 169.0988 0001123 100.0678 260.1789 15.09533302432736

DHRUVA SPACE SAT-1
1 57890U 23091D   25344.68750000  .00001789  00000-0  92234-4 0  9996
2 57890  97.7012 170.9876 0001012 100.9789 259.2900 15.12234191432625

DHRUVA SPACE SAT-2
1 57891U 23091E   25344.68750000  .00001678  00000-0  86123-4 0  9994
2 57891  97.6901 169.8765 0000901 101.8900 258.4011 15.12233080432514

DIGANTARA SAT-1
1 58012U 24001B   25344.69791667  .00001567  00000-0  80012-4 0  9991
2 58012  97.8012 170.8765 0000790 102.8011 257.5122 15.10234969432959

BELLATRIX SAT-1
1 58013U 24001C   25344.69791667  .00001456  00000-0  74901-4 0  9993
2 58013  97.7901 169.7654 0000679 103.7122 256.6233 15.10233858432848

GALAXEYE SAT-1
1 58014U 24001D   25344.70833333  .00001345  00000-0  68790-4 0  9996
2 58014  97.7790 168.6543 0000568 104.6233 255.7344 15.10232747432737

AGNIKUL SPACE SAT
1 60001U 24150A   25344.70833333  .00001234  00000-0  62679-4 0  9994
2 60001  97.8512 169.5432 0000457 105.5344 254.8455 15.07123636431626

SKYROOT SAT-1
1 60002U 24150B   25344.71875000  .00001789  00000-0  92234-4 0  9991
2 60002  97.5012 168.4321 0001234 106.4455 253.9566 15.23134525435515

SKYROOT SAT-2
1 60003U 24150C   25344.71875000  .00001678  00000-0  86123-4 0  9993
2 60003  97.4901 167.3210 0001123 107.3566 253.0677 15.23133414435404

MOMENTUS VIGORIDE-1
1 49645U 21059K   25344.72916667  .00000456  00000-0  22512-4 0  9996
2 49645  97.6512 170.3412 0001234 107.0512 253.1341 14.98512302430768

LAUNCHER ORBITER SN1
1 54684U 22178E   25344.72916667  .00000567  00000-0  27901-4 0  9994
2 54684  97.5512 169.2301 0001123 107.9623 252.2452 14.98513413430879

EXOLAUNCH RIDESHARE-1
1 44330U 19021D   25344.73958333  .00001234  00000-0  64512-4 0  9991
2 44330  97.7012 170.1190 0001012 108.8734 251.3563 15.09812302432959

D-ORBIT ION SCV-1
1 49258U 21088B   25344.73958333  .00001123  00000-0  58234-4 0  9993
2 49258  97.7501 169.0079 0000901 109.7845 250.4674 15.09811191432848

D-ORBIT ION SCV-2
1 50985U 21116A   25344.74166667  .00001012  00000-0  52123-4 0  9996
2 50985  97.6512 167.8968 0000790 110.6956 249.5785 15.09810080432737

SPACEFLIGHT SHERPA-LTE1
1 49263U 21088C   25344.74166667  .00000901  00000-0  45012-4 0  9994
2 49263  97.7012 168.7857 0000679 111.6067 248.6896 15.09808969432626

SPACEFLIGHT SHERPA-FX1
1 47943U 21012F   25344.74166667  .00000790  00000-0  39901-4 0  9991
2 47943  97.8512 167.6746 0000568 112.5178 247.8007 15.09807858432515

ISRO SSLV TEST SAT-1
1 54686U 22182A   25344.75000000  .00001234  00000-0  64512-4 0  9993
2 54686  37.1512 168.5635 0001234 104.1234 256.1234 14.98234747431404

ISRO SSLV TEST SAT-2
1 54687U 22182B   25344.75000000  .00001123  00000-0  58234-4 0  9996
2 54687  37.1401 167.4524 0001123 105.0345 255.2345 14.98233636431293

YUVA-2
1 44329U 19021E   25344.75000000  .00001789  00000-0  92234-4 0  9994
2 44329  97.7512 169.3413 0001012 105.9456 254.3456 15.23512858433180

POCKETQUBE PQ9-1
1 48944U 21059L   25344.75000000  .00002345  00000-0  15234-3 0  9991
2 48944  97.5012 168.2302 0000901 106.8567 253.4567 15.34623747436069

ASTROCAST-0.1
1 44329U 19021F   25344.75833333  .00000234  00000-0  11234-3 0  9993
2 44329  97.7012 169.1191 0000790 107.7678 252.5678 14.87923636427958

ASTROCAST-0.2
1 44330U 19021G   25344.75833333  .00000223  00000-0  10987-3 0  9996
2 44330  97.6901 168.0080 0000679 108.6789 251.6789 14.87922525427847

FOSSA SAT-1
1 44329U 19021H   25344.76041667  .00002456  00000-0  15987-3 0  9994
2 44329  97.5512 168.9969 0000568 109.5900 250.8900 15.34624958436958

FOSSA SAT-2
1 47944U 21012G   25344.76041667  .00002345  00000-0  15234-3 0  9991
2 47944  97.5401 167.8858 0000457 110.5011 249.9011 15.34623847436847

SATELLOGIC NEWSAT-7
1 49351U 21059M   25344.76041667  .00001234  00000-0  64512-4 0  9993
2 49351  97.5290 166.7747 0000346 111.4122 249.0122 14.66534736420436

SATELLOGIC NEWSAT-9
1 52001U 22050L   25344.76041667  .00001123  00000-0  58234-4 0  9996
2 52001  97.5179 165.6636 0000235 112.3233 248.1233 14.66533625420325

TYVAK NANO-3
1 47650U 21003A   25344.76250000  .00001678  00000-0  86123-4 0  9994
2 47650  97.6012 169.5525 0000124 113.2344 247.2344 15.12134514432214

EXOLAUNCH RIDESHARE-2
1 49264U 21088D   25344.76250000  .00001567  00000-0  80012-4 0  9991
2 49264  97.5901 168.4414 0000013 114.1455 246.3455 15.12133403432103

SWARM DOVES F1
1 44329U 19021I   25344.76250000  .00002234  00000-0  14523-3 0  9993
2 44329  97.7512 169.3303 0001234 106.0566 254.0566 15.09534292432992

SWARM DOVES F2
1 44330U 19021J   25344.76250000  .00002123  00000-0  13901-3 0  9996
2 44330  97.7401 168.2192 0001123 106.9677 253.1677 15.09533181432881

SATELIOT-1
1 47946U 21012H   25344.76458333  .00000789  00000-0  39012-4 0  9994
2 47946  97.5012 167.1081 0001012 107.8788 252.2788 14.78334080427770

SATELIOT-2
1 47947U 21012I   25344.76458333  .00000778  00000-0  38123-4 0  9991
2 47947  97.4901 165.9970 0000901 108.7899 251.3899 14.78332969427659

HIVE SAT-1
1 52002U 22050M   25344.76458333  .00001345  00000-0  68790-4 0  9993
2 52002  97.6512 168.8859 0000790 109.7010 250.5010 15.09934858432548

HIVE SAT-2
1 52003U 22050N   25344.76458333  .00001234  00000-0  62679-4 0  9996
2 52003  97.6401 167.7748 0000679 110.6121 249.6121 15.09933747432437

TYVAK NANO-6
1 54688U 22182C   25344.76666667  .00001789  00000-0  92234-4 0  9994
2 54688  97.7012 168.6637 0000568 111.5232 248.7232 15.12134636432326

STARLINK-7001
1 55001U 22202A   25344.55208333  .00002345  00000-0  15234-3 0  9993
2 55001  53.3012 137.4321 0001234  86.2523 273.8741 15.07634512402123

STARLINK-7002
1 55002U 22202B   25344.55208333  .00002234  00000-0  14523-3 0  9996
2 55002  53.2901 138.5432 0001123  85.1412 274.9852 15.07633401402012

STARLINK-7003
1 55003U 22202C   25344.55208333  .00002456  00000-0  15987-3 0  9994
2 55003  53.3123 136.3210 0001345  87.3634 272.7630 15.07635623402234

STARLINK-7004
1 55004U 22202D   25344.55208333  .00002312  00000-0  14987-3 0  9991
2 55004  53.2790 139.6543 0001098  83.0301 277.0963 15.07632290401901

ONEWEB-11
1 44067U 19010L   25344.57291667  .00000289  00000-0  13012-3 0  9993
2 44067  87.9678 130.2098 0001890  87.8675 272.1789 13.49880078365489

ONEWEB-12
1 44068U 19010M   25344.57291667  .00000193  00000-0  09345-3 0  9996
2 44068  87.8457 117.9877 0000679  99.3897 261.0215 13.49867857364268

PLANET DOVE-5
1 47948U 21012J   25344.59375000  .00001890  00000-0  12190-3 0  9994
2 47948  97.5679 169.2099 0000987  98.3674 261.8518 15.09431079432428

PLANET DOVE-6
1 47949U 21012K   25344.59375000  .00001780  00000-0  11479-3 0  9991
2 47949  97.5568 168.0988 0000876  99.2785 260.9629 15.09429968432317

CAPELLA-4
1 51090U 22003A   25344.61458333  .00000434  00000-0  21290-4 0  9993
2 51090  97.5290 168.2099 0001012 100.0456 260.1234 14.98509857430090

CAPELLA-5
1 51091U 22003B   25344.61458333  .00000423  00000-0  20679-4 0  9996
2 51091  97.5179 167.0988 0000901 100.9567 259.2345 14.98508746429979
